[Satellite]
VERSION=1.1
NAME=S-Net B
NICKNAME=S-Net B
TLE1=1 43187U 18014H   22335.53292223  .00002024  00000-0  17344-3 0  9990
TLE2=2 43187  97.6449 237.9525 0011661  96.9687 263.2862 14.98600403263934
STATUS=0
